[{"OBJECT_NAME":"STARLINK-5862","OBJECT_ID":"2023-037G","EPOCH":"2026-03-09T22:41:26.758176","MEAN_MOTION":14.98328519,"ECCENTRICITY":0.00027459,"INCLINATION":69.9976,"RA_OF_ASC_NODE":284.0081,"ARG_OF_PERICENTER":270.8267,"MEAN_ANOMALY":89.2578,"EPHEMERIS_TYPE":0,"CLASSIFICATION_TYPE":"U","NORAD_CAT_ID":55920,"ELEMENT_SET_NO":999,"REV_AT_EPOCH":16401,"BSTAR":7.8461693e-5,"MEAN_MOTION_DOT":8.43e-6,"MEAN_MOTION_DDOT":0},{"OBJECT_NAME":"LEMUR-2-EMERSONROSE","OBJECT_ID":"2025-052BD","EPOCH":"2026-03-09T22:41:34.308672","MEAN_MOTION":14.98235234,"ECCENTRICITY":0.00026118,"INCLINATION":97.701,"RA_OF_ASC_NODE":323.5746,"ARG_OF_PERICENTER":47.547,"MEAN_ANOMALY":312.5973,"EPHEMERIS_TYPE":0,"CLASSIFICATION_TYPE":"U","NORAD_CAT_ID":63261,"ELEMENT_SET_NO":999,"REV_AT_EPOCH":5387,"BSTAR":0.00054278878,"MEAN_MOTION_DOT":6.392e-5,"MEAN_MOTION_DDOT":0}]
